{
  "norad_id": 68204,
  "name": "2026-052G",
  "history": [
    {
      "epoch": "2026-03-28T22:27:26.657280Z",
      "apogee_km": 540.6260559191505,
      "perigee_km": 527.3428938384477,
      "latitude_deg": -2.300417637832208e-05,
      "longitude_deg": 0.7838022442858079,
      "height_km": 542.4026572800639,
      "semi_major_axis_km": 6912.121474878799,
      "eccentricity": 0.00096086,
      "inclination_deg": 97.5378,
      "raan_deg": 163.9939,
      "arg_perigee_deg": 216.5294,
      "mean_anomaly_deg": 143.5281,
      "mean_motion_rev_day": 15.10726054
    },
    {
      "epoch": "2026-03-29T04:48:57.499200Z",
      "apogee_km": 540.6292266882265,
      "perigee_km": 527.3068354513416,
      "latitude_deg": -1.294362064267648e-05,
      "longitude_deg": -94.59484407857501,
      "height_km": 542.4669604635535,
      "semi_major_axis_km": 6912.105031069784,
      "eccentricity": 0.0009637,
      "inclination_deg": 97.5377,
      "raan_deg": 164.2549,
      "arg_perigee_deg": 215.5789,
      "mean_anomaly_deg": 144.4799,
      "mean_motion_rev_day": 15.10731445
    },
    {
      "epoch": "2026-03-30T04:39:37.440576Z",
      "apogee_km": 540.6078533280897,
      "perigee_km": 527.2026385962718,
      "latitude_deg": -1.712857888592723e-05,
      "longitude_deg": -92.26192116552629,
      "height_km": 542.6826557700612,
      "semi_major_axis_km": 6912.0422459621805,
      "eccentricity": 0.0009697,
      "inclination_deg": 97.5375,
      "raan_deg": 165.2335,
      "arg_perigee_deg": 211.8015,
      "mean_anomaly_deg": 148.263,
      "mean_motion_rev_day": 15.10752029
    },
    {
      "epoch": "2026-03-30T06:15:00.072000Z",
      "apogee_km": 540.6121613141258,
      "perigee_km": 527.193541868638,
      "latitude_deg": -2.1355819529634186e-05,
      "longitude_deg": -116.10620149975355,
      "height_km": 542.6994306047093,
      "semi_major_axis_km": 6912.039851591381,
      "eccentricity": 0.00097067,
      "inclination_deg": 97.5376,
      "raan_deg": 165.2988,
      "arg_perigee_deg": 211.5822,
      "mean_anomaly_deg": 148.4826,
      "mean_motion_rev_day": 15.10752814
    },
    {
      "epoch": "2026-03-30T14:11:53.121120Z",
      "apogee_km": 540.6201998191218,
      "perigee_km": 527.1471508783179,
      "latitude_deg": -4.5945259942410365e-05,
      "longitude_deg": 124.6726485153736,
      "height_km": 542.7743033991695,
      "semi_major_axis_km": 6912.020675348719,
      "eccentricity": 0.00097461,
      "inclination_deg": 97.5375,
      "raan_deg": 165.6251,
      "arg_perigee_deg": 210.4104,
      "mean_anomaly_deg": 149.6561,
      "mean_motion_rev_day": 15.10759101
    }
  ]
}